{"type": "FeatureCollection", "features": [{"type": "Feature", "properties": {"norad_id": 36828, "name": "BEIDOU-2 IGSO-1 (C06)", "group": "beidou", "lat": -4.632238320033254, "lon": -12.020491461144452, "alt_km": 35599.340605077, "timestamp": "2025-12-13T10:41:26.030809+00:00", "meta": {"OBJECT_NAME": "BEIDOU-2 IGSO-1 (C06)", "OBJECT_ID": "2010-036A", "EPOCH": "2025-12-12T21:56:21.549120", "MEAN_MOTION": 1.00276081, "ECCENTRICITY": 0.00512083, "INCLINATION": 54.2861, "RA_OF_ASC_NODE": 164.6456, "ARG_OF_PERICENTER": 215.8019, "MEAN_ANOMALY": 138.385, "EPHEMERIS_TYPE": 0, "CLASSIFICATION_TYPE": "U", "NORAD_CAT_ID": 36828, "ELEMENT_SET_NO": 999, "REV_AT_EPOCH": 5622, "BSTAR": 0, "MEAN_MOTION_DOT": -3.7e-07, "MEAN_MOTION_DDOT": 0}, "tle": {"line1": "1 36828U 10036A   25346.91413830 -.00000037  00000+0  00000+0 0  9995", "line2": "2 36828  54.2861 164.6456 0051208 215.8019 138.3850  1.00276081 56227"}}, "geometry": {"type": "Point", "coordinates": [-12.020491461144452, -4.632238320033254]}}, {"type": "Feature", "properties": {"norad_id": 37210, "name": "BEIDOU-2 G4 (C04)", "group": "beidou", "lat": -1.4317217799582254, "lon": 42.91796021997685, "alt_km": 35822.49141708914, "timestamp": "2025-12-13T10:41:26.030832+00:00", "meta": {"OBJECT_NAME": "BEIDOU-2 G4 (C04)", "OBJECT_ID": "2010-057A", "EPOCH": "2025-12-12T22:48:10.954656", "MEAN_MOTION": 1.00271593, "ECCENTRICITY": 0.00108604, "INCLINATION": 3.1855, "RA_OF_ASC_NODE": 69.9384, "ARG_OF_PERICENTER": 191.083, "MEAN_ANOMALY": 322.988, "EPHEMERIS_TYPE": 0, "CLASSIFICATION_TYPE": "U", "NORAD_CAT_ID": 37210, "ELEMENT_SET_NO": 999, "REV_AT_EPOCH": 5542, "BSTAR": 0, "MEAN_MOTION_DOT": -1e-06, "MEAN_MOTION_DDOT": 0}, "tle": {"line1": "1 37210U 10057A   25346.95012679 -.00000100  00000+0  00000+0 0  9995", "line2": "2 37210   3.1855  69.9384 0010860 191.0830 322.9880  1.00271593 55429"}}, "geometry": {"type": "Point", "coordinates": [42.91796021997685, -1.4317217799582254]}}, {"type": "Feature", "properties": {"norad_id": 37256, "name": "BEIDOU-2 IGSO-2 (C07)", "group": "beidou", "lat": 46.03828121889297, "lon": -16.45845785360209, "alt_km": 35936.08151531675, "timestamp": "2025-12-13T10:41:26.030847+00:00", "meta": {"OBJECT_NAME": "BEIDOU-2 IGSO-2 (C07)", "OBJECT_ID": "2010-068A", "EPOCH": "2025-12-03T17:22:36.027840", "MEAN_MOTION": 1.0028872, "ECCENTRICITY": 0.00492449, "INCLINATION": 47.9042, "RA_OF_ASC_NODE": 274.2614, "ARG_OF_PERICENTER": 216.1411, "MEAN_ANOMALY": 310.24, "EPHEMERIS_TYPE": 0, "CLASSIFICATION_TYPE": "U", "NORAD_CAT_ID": 37256, "ELEMENT_SET_NO": 999, "REV_AT_EPOCH": 5483, "BSTAR": 0, "MEAN_MOTION_DOT": -2.25e-06, "MEAN_MOTION_DDOT": 0}, "tle": {"line1": "1 37256U 10068A   25337.72402810 -.00000225  00000+0  00000+0 0  9990", "line2": "2 37256  47.9042 274.2614 0049244 216.1411 310.2400  1.00288720 54834"}}, "geometry": {"type": "Point", "coordinates": [-16.45845785360209, 46.03828121889297]}}, {"type": "Feature", "properties": {"norad_id": 37384, "name": "BEIDOU-2 IGSO-3 (C08)", "group": "beidou", "lat": -43.674589845220765, "lon": 11.66026997764978, "alt_km": 35868.667324981834, "timestamp": "2025-12-13T10:41:26.030862+00:00", "meta": {"OBJECT_NAME": "BEIDOU-2 IGSO-3 (C08)", "OBJECT_ID": "2011-013A", "EPOCH": "2025-12-12T16:08:36.948768", "MEAN_MOTION": 1.0027095, "ECCENTRICITY": 0.00354506, "INCLINATION": 62.1436, "RA_OF_ASC_NODE": 41.9157, "ARG_OF_PERICENTER": 187.5119, "MEAN_ANOMALY": 201.8968, "EPHEMERIS_TYPE": 0, "CLASSIFICATION_TYPE": "U", "NORAD_CAT_ID": 37384, "ELEMENT_SET_NO": 999, "REV_AT_EPOCH": 5379, "BSTAR": 0, "MEAN_MOTION_DOT": -1.97e-06, "MEAN_MOTION_DDOT": 0}, "tle": {"line1": "1 37384U 11013A   25346.67264987 -.00000197  00000+0  00000+0 0  9996", "line2": "2 37384  62.1436  41.9157 0035450 187.5119 201.8968  1.00270950 53797"}}, "geometry": {"type": "Point", "coordinates": [11.66026997764978, -43.674589845220765]}}, {"type": "Feature", "properties": {"norad_id": 37763, "name": "BEIDOU-2 IGSO-4 (C09)", "group": "beidou", "lat": 9.468259896754065, "lon": -19.488949789636514, "alt_km": 35479.31495211412, "timestamp": "2025-12-13T10:41:26.030875+00:00", "meta": {"OBJECT_NAME": "BEIDOU-2 IGSO-4 (C09)", "OBJECT_ID": "2011-038A", "EPOCH": "2025-12-10T12:04:03.489024", "MEAN_MOTION": 1.00284678, "ECCENTRICITY": 0.01490344, "INCLINATION": 54.5829, "RA_OF_ASC_NODE": 167.3658, "ARG_OF_PERICENTER": 230.2355, "MEAN_ANOMALY": 317.2212, "EPHEMERIS_TYPE": 0, "CLASSIFICATION_TYPE": "U", "NORAD_CAT_ID": 37763, "ELEMENT_SET_NO": 999, "REV_AT_EPOCH": 5275, "BSTAR": 0, "MEAN_MOTION_DOT": 3.6e-07, "MEAN_MOTION_DDOT": 0}, "tle": {"line1": "1 37763U 11038A   25344.50281816  .00000036  00000+0  00000+0 0  9995", "line2": "2 37763  54.5829 167.3658 0149034 230.2355 317.2212  1.00284678 52751"}}, "geometry": {"type": "Point", "coordinates": [-19.488949789636514, 9.468259896754065]}}, {"type": "Feature", "properties": {"norad_id": 37948, "name": "BEIDOU-2 IGSO-5 (C10)", "group": "beidou", "lat": 40.81506914857056, "lon": -35.26663212983983, "alt_km": 36213.127392172566, "timestamp": "2025-12-13T10:41:26.030888+00:00", "meta": {"OBJECT_NAME": "BEIDOU-2 IGSO-5 (C10)", "OBJECT_ID": "2011-073A", "EPOCH": "2025-12-12T18:24:47.608416", "MEAN_MOTION": 1.00291151, "ECCENTRICITY": 0.01101752, "INCLINATION": 48.0199, "RA_OF_ASC_NODE": 273.857, "ARG_OF_PERICENTER": 222.308, "MEAN_ANOMALY": 314.7254, "EPHEMERIS_TYPE": 0, "CLASSIFICATION_TYPE": "U", "NORAD_CAT_ID": 37948, "ELEMENT_SET_NO": 999, "REV_AT_EPOCH": 5126, "BSTAR": 0, "MEAN_MOTION_DOT": -2.21e-06, "MEAN_MOTION_DDOT": 0}, "tle": {"line1": "1 37948U 11073A   25346.76721769 -.00000221  00000+0  00000+0 0  9992", "line2": "2 37948  48.0199 273.8570 0110175 222.3080 314.7254  1.00291151 51268"}}, "geometry": {"type": "Point", "coordinates": [-35.26663212983983, 40.81506914857056]}}, {"type": "Feature", "properties": {"norad_id": 38091, "name": "BEIDOU-2 G5 (C05)", "group": "beidou", "lat": -2.4237200615681793, "lon": -58.499865784923976, "alt_km": 35732.29565936461, "timestamp": "2025-12-13T10:41:26.030900+00:00", "meta": {"OBJECT_NAME": "BEIDOU-2 G5 (C05)", "OBJECT_ID": "2012-008A", "EPOCH": "2025-12-13T00:01:56.388576", "MEAN_MOTION": 1.00275764, "ECCENTRICITY": 0.00125754, "INCLINATION": 3.1102, "RA_OF_ASC_NODE": 70.7112, "ARG_OF_PERICENTER": 227.693, "MEAN_ANOMALY": 202.8143, "EPHEMERIS_TYPE": 0, "CLASSIFICATION_TYPE": "U", "NORAD_CAT_ID": 38091, "ELEMENT_SET_NO": 999, "REV_AT_EPOCH": 5050, "BSTAR": 0, "MEAN_MOTION_DOT": 6.8e-07, "MEAN_MOTION_DDOT": 0}, "tle": {"line1": "1 38091U 12008A   25347.00134709  .00000068  00000+0  00000+0 0  9999", "line2": "2 38091   3.1102  70.7112 0012575 227.6930 202.8143  1.00275764 50509"}}, "geometry": {"type": "Point", "coordinates": [-58.499865784923976, -2.4237200615681793]}}, {"type": "Feature", "properties": {"norad_id": 38250, "name": "BEIDOU-2 M3 (C11)", "group": "beidou", "lat": 24.202711613013516, "lon": -31.17772296687084, "alt_km": 21554.971672030377, "timestamp": "2025-12-13T10:41:26.030912+00:00", "meta": {"OBJECT_NAME": "BEIDOU-2 M3 (C11)", "OBJECT_ID": "2012-018A", "EPOCH": "2025-12-09T02:31:53.071968", "MEAN_MOTION": 1.86229533, "ECCENTRICITY": 0.00244707, "INCLINATION": 55.9232, "RA_OF_ASC_NODE": 311.2798, "ARG_OF_PERICENTER": 273.7022, "MEAN_ANOMALY": 86.0063, "EPHEMERIS_TYPE": 0, "CLASSIFICATION_TYPE": "U", "NORAD_CAT_ID": 38250, "ELEMENT_SET_NO": 999, "REV_AT_EPOCH": 9240, "BSTAR": 0, "MEAN_MOTION_DOT": -7.5e-07, "MEAN_MOTION_DDOT": 0}, "tle": {"line1": "1 38250U 12018A   25343.10547537 -.00000075  00000+0  00000+0 0  9990", "line2": "2 38250  55.9232 311.2798 0024470 273.7022  86.0063  1.86229533 92404"}}, "geometry": {"type": "Point", "coordinates": [-31.17772296687084, 24.202711613013516]}}, {"type": "Feature", "properties": {"norad_id": 38251, "name": "BEIDOU-2 M4 (C12)", "group": "beidou", "lat": 53.09806101991682, "lon": 15.093037980035943, "alt_km": 21562.29874159881, "timestamp": "2025-12-13T10:41:26.030923+00:00", "meta": {"OBJECT_NAME": "BEIDOU-2 M4 (C12)", "OBJECT_ID": "2012-018B", "EPOCH": "2025-12-12T06:13:22.160064", "MEAN_MOTION": 1.86229301, "ECCENTRICITY": 0.0015548, "INCLINATION": 55.8219, "RA_OF_ASC_NODE": 310.4024, "ARG_OF_PERICENTER": 277.1255, "MEAN_ANOMALY": 82.6882, "EPHEMERIS_TYPE": 0, "CLASSIFICATION_TYPE": "U", "NORAD_CAT_ID": 38251, "ELEMENT_SET_NO": 999, "REV_AT_EPOCH": 9246, "BSTAR": 0, "MEAN_MOTION_DOT": -9e-07, "MEAN_MOTION_DDOT": 0}, "tle": {"line1": "1 38251U 12018B   25346.25928426 -.00000090  00000+0  00000+0 0  9997", "line2": "2 38251  55.8219 310.4024 0015548 277.1255  82.6882  1.86229301 92464"}}, "geometry": {"type": "Point", "coordinates": [15.093037980035943, 53.09806101991682]}}, {"type": "Feature", "properties": {"norad_id": 38775, "name": "BEIDOU-2 M6 (C14)", "group": "beidou", "lat": -56.3835159963033, "lon": -22.844377480904807, "alt_km": 21526.37110427112, "timestamp": "2025-12-13T10:41:26.030934+00:00", "meta": {"OBJECT_NAME": "BEIDOU-2 M6 (C14)", "OBJECT_ID": "2012-050B", "EPOCH": "2025-12-11T10:23:51.015840", "MEAN_MOTION": 1.86230797, "ECCENTRICITY": 0.00111593, "INCLINATION": 56.3773, "RA_OF_ASC_NODE": 69.1107, "ARG_OF_PERICENTER": 344.6089, "MEAN_ANOMALY": 15.3783, "EPHEMERIS_TYPE": 0, "CLASSIFICATION_TYPE": "U", "NORAD_CAT_ID": 38775, "ELEMENT_SET_NO": 999, "REV_AT_EPOCH": 8981, "BSTAR": 0, "MEAN_MOTION_DOT": -6.3e-07, "MEAN_MOTION_DDOT": 0}, "tle": {"line1": "1 38775U 12050B   25345.43322935 -.00000063  00000+0  00000+0 0  9996", "line2": "2 38775  56.3773  69.1107 0011159 344.6089  15.3783  1.86230797 89814"}}, "geometry": {"type": "Point", "coordinates": [-22.844377480904807, -56.3835159963033]}}]}